OBJECT_NAME,OBJECT_ID,EPOCH,MEAN_MOTION,ECCENTRICITY,INCLINATION,RA_OF_ASC_NODE,ARG_OF_PERICENTER,MEAN_ANOMALY,EPHEMERIS_TYPE,CLASSIFICATION_TYPE,NORAD_CAT_ID,ELEMENT_SET_NO,REV_AT_EPOCH,BSTAR,MEAN_MOTION_DOT,MEAN_MOTION_DDOT
INTELSAT 902 (IS-902),2001-039A,2026-06-18T12:41:02.392224,1.00271543,.0004307,6.1204,71.7676,12.4923,322.6674,0,U,26900,999,9070,0,-.292E-5,0
INTELSAT 904 (IS-904),2002-007A,2026-06-18T11:03:47.464128,1.00270286,.000653,6.9241,69.1697,5.9759,326.0004,0,U,27380,999,5177,0,-.235E-5,0
DIRECTV 5 (TEMPO 1),2002-023A,2026-06-18T10:03:38.852352,1.00271613,.0003143,4.8819,75.2944,13.6987,218.4628,0,U,27426,999,8813,0,-.65E-6,0
INTELSAT 905 (IS-905),2002-027A,2026-06-18T19:06:49.875840,1.00272116,.0003883,6.7585,69.7818,22.1545,324.5816,0,U,27438,999,5137,0,.85E-6,0
GALAXY 3C (G-3C),2002-030A,2026-06-18T09:02:54.336192,1.00271347,.0001601,3.7359,77.9598,30.5698,198.9629,0,U,27445,999,4650,0,-.16E-5,0
INTELSAT 906 (IS-906),2002-041A,2026-06-18T04:57:21.563712,1.00275136,.0004397,5.8051,72.9092,2.8775,329.1640,0,U,27513,999,8703,0,.4E-7,0
GALAXY 13 (HORIZONS-1),2003-044A,2026-06-18T15:37:56.150112,1.00271682,.0002227,1.4228,83.8471,355.5372,271.9735,0,U,27954,999,4658,0,.126E-5,0
INTELSAT 10-02,2004-022A,2026-06-18T14:37:42.737952,1.00271494,.0000089,0.0170,305.3898,226.0866,313.7894,0,U,28358,999,8057,0,-.17E-6,0
DIRECTV 8,2005-019A,2026-06-18T15:46:40.312128,1.00269879,.0002974,0.0194,12.3444,81.1360,291.0348,0,U,28659,999,7708,0,0,0
GALAXY 28 (G-28),2005-022A,2026-06-18T19:38:01.883040,1.00271033,.0002851,3.3024,78.9149,8.2458,87.3200,0,U,28702,999,5199,0,-.208E-5,0
GALAXY 16 (G-16),2006-023A,2026-06-18T15:52:24.762144,1.00271467,.000251,0.0108,96.8222,347.0208,322.1537,0,U,29236,999,7298,0,-.133E-5,0
DIRECTV 9S,2006-043A,2026-06-18T15:51:47.320704,1.00270968,.000497,2.4256,80.8851,13.4998,309.2610,0,U,29494,999,5139,0,-.12E-5,0
GALAXY 17 (G-17),2007-016B,2026-06-18T19:21:40.951872,1.00271625,.0004669,2.9772,79.8811,18.6220,13.9446,0,U,31307,999,6982,0,-.213E-5,0
INTELSAT 11 (IS-11),2007-044B,2026-06-18T19:43:02.466912,0.99050129,.000244,3.5706,78.6500,88.5869,154.2628,0,U,32253,999,6846,0,-.21E-5,0
HORIZONS-2,2007-063B,2026-06-18T19:24:55.641312,1.00272848,.0003858,2.6071,80.6058,358.1525,45.6987,0,U,32388,999,6783,0,-.261E-5,0
DIRECTV 11,2008-013A,2026-06-18T15:46:13.891872,1.00269953,.0000174,0.0065,285.2993,94.7881,24.1838,0,U,32729,999,4560,0,-.132E-5,0
GALAXY 18 (G-18),2008-024A,2026-06-18T15:45:32.920128,1.00270297,.0002786,0.0159,58.5793,26.7804,294.9187,0,U,32951,999,4586,0,.19E-6,0
INTELSAT 25 (IS-25),2008-034A,2026-06-18T19:39:00.260928,0.99034072,.0003457,2.7151,80.3536,60.5514,175.2855,0,U,33153,999,6570,0,-.182E-5,0
GALAXY 19 (G-19),2008-045A,2026-06-18T15:53:02.200992,1.00271177,.0002518,0.0324,263.5653,188.5280,316.0666,0,U,33376,999,6491,0,-.145E-5,0
FM-5,2009-034A,2026-06-18T19:21:18.487008,1.00271588,.0000944,0.0179,295.9022,19.5019,155.7986,0,U,35493,999,4666,0,-.206E-5,0
INTELSAT 14 (IS-14),2009-064A,2026-06-18T19:33:09.851040,1.00271936,.0002312,0.0112,313.3595,132.8489,69.1362,0,U,36097,999,6062,0,-.28E-5,0
INTELSAT 15 (IS-15),2009-067A,2026-06-18T20:10:17.711328,1.00272268,.0002121,0.0165,338.5876,109.1900,207.0134,0,U,36106,999,4124,0,-.191E-5,0
DIRECTV 12,2009-075A,2026-06-18T15:51:24.856704,1.00272181,.0000385,0.0434,170.9001,299.0990,292.0273,0,U,36131,999,4656,0,-.11E-5,0
INTELSAT 16 (IS-16),2010-006A,2026-06-18T12:33:33.108768,1.00272434,.0001928,0.0106,326.8305,134.2807,277.8288,0,U,36397,999,5966,0,-.251E-5,0
XM-5,2010-053A,2026-06-18T15:47:47.704128,1.00269942,.0002633,0.0617,273.0740,290.4585,185.1075,0,U,37185,999,5749,0,-.29E-6,0
INTELSAT 17 (IS-17),2010-065B,2026-06-18T20:46:10.407936,1.00272172,.000287,0.0248,73.8667,38.8550,171.8960,0,U,37238,999,5326,0,0,0
INTELSAT 28 (IS-28),2011-016A,2026-06-18T19:36:54.491040,1.00271531,.0003628,1.8114,82.5976,6.2655,80.6954,0,U,37392,999,5330,0,-.232E-5,0
INTELSAT 18 (IS-18),2011-056A,2026-06-18T18:54:36.047808,1.00270806,.0001721,0.0379,272.9518,174.3334,283.3773,0,U,37834,999,5382,0,.46E-6,0
INTELSAT 22 (IS-22),2012-011A,2026-06-18T18:50:41.832096,1.00272401,.0001542,0.0141,38.0192,53.1475,170.6292,0,U,38098,999,720,0,-.65E-6,0
INTELSAT 19 (IS-19),2012-030A,2026-06-18T18:50:36.432096,1.00271435,.0002933,0.0185,4.1791,91.6631,259.8205,0,U,38356,999,5046,0,-.63E-6,0
INTELSAT 20 (IS-20),2012-043A,2026-06-18T20:05:25.673280,1.00271173,.0001439,0.0029,47.2647,132.1671,97.5047,0,U,38740,999,5076,0,-.31E-6,0
